0 FENGYUN 1C DEB
1 31619U 99025BZZ 13283.89536120  .00004585  00000-0  21399-2 0  5675
2 31619 099.2061 291.6291 0293118 328.8733 146.5700 14.00700143327068
0 FENGYUN 1C DEB
1 31619U 99025BZZ 13285.89546421  .00003970  00000-0  18559-2 0  5684
2 31619 099.2057 293.6480 0293066 323.3419 152.2181 14.00715379327343
0 FENGYUN 1C DEB
1 31619U 99025BZZ 13291.31406377  .00004474  00000-0  20836-2 0  5695
2 31619 099.2072 299.1216 0293631 307.4767 117.3823 14.00761536328101
0 FENGYUN 1C DEB
1 31619U 99025BZZ 13292.89583632  .00003977  00000-0  18594-2 0  5706
2 31619 099.1939 300.7323 0292619 303.4202 173.5584 14.00770787328325
0 FENGYUN 1C DEB
1 31619U 99025BZZ 13293.89588088  .00004536  00000-0  21167-2 0  5710
2 31619 099.1896 301.7500 0292676 300.5985 176.6547 14.00778239328462
0 FENGYUN 1C DEB
1 31619U 99025BZZ 13295.89589274  .00004710  00000-0  21945-2 0  5729
2 31619 099.1904 303.7665 0292928 295.1171 182.3546 14.00793600328745
